start=new Date('2022-06-11T00:00:00.000Z').valueOf();
sats=[{"NORAD_CAT_ID":"45413","LAUNCH_DATE":"2020-03-18","PERIOD":"95.593","BSTAR":"0.00006320300000","COUNTRY_CODE":"US","OBJECT_NAME":"STARLINK-1298","TLE_LINE1":"1 45413U 20019BF  22161.20508088  .00000660  00000-0  63203-4 0  9992","ECCENTRICITY":"0.00015940","OBJECT_TYPE":"PAYLOAD","REV_AT_EPOCH":"12369","CENTER_NAME":"EARTH","TIME_SYSTEM":"UTC","DECAY_DATE":null,"EPOCH":"2022-06-10T04:55:18.988032","RCS_SIZE":"LARGE","MEAN_MOTION":"15.06390020","OBJECT_ID":"2020-019BF","RA_OF_ASC_NODE":"159.9772","MEAN_ANOMALY":"299.4710","SITE":"AFETR","APOAPSIS":"548.348","MEAN_MOTION_DDOT":"0.0000000000000","CLASSIFICATION_TYPE":"U","GP_ID":"205821200","ARG_OF_PERICENTER":"60.6438","INCLINATION":"53.0533","MEAN_ELEMENT_THEORY":"SGP4","EPHEMERIS_TYPE":"0","SEMIMAJOR_AXIS":"6925.379","FILE":"3489795","ELEMENT_SET_NO":"999","TLE_LINE2":"2 45413  53.0533 159.9772 0001594  60.6438 299.4710 15.06390020123693","MEAN_MOTION_DOT":"0.00000660","PERIAPSIS":"546.140","REF_FRAME":"TEME"},{"CLASSIFICATION_TYPE":"U","GP_ID":"205834822","ARG_OF_PERICENTER":"55.7609","SITE":"AFETR","MEAN_ANOMALY":"304.3545","APOAPSIS":"548.421","MEAN_MOTION_DDOT":"0.0000000000000","ELEMENT_SET_NO":"999","FILE":"3490193","MEAN_MOTION_DOT":"-0.00000374","TLE_LINE2":"2 45414  53.0539 157.3599 0001744  55.7609 304.3545 15.06400028123693","REF_FRAME":"TEME","PERIAPSIS":"546.006","MEAN_ELEMENT_THEORY":"SGP4","INCLINATION":"53.0539","SEMIMAJOR_AXIS":"6925.348","EPHEMERIS_TYPE":"0","COUNTRY_CODE":"US","TLE_LINE1":"1 45414U 20019BG  22161.78744978 -.00000374  00000-0 -62093-5 0  9997","OBJECT_NAME":"STARLINK-1309","ECCENTRICITY":"0.00017440","OBJECT_TYPE":"PAYLOAD","NORAD_CAT_ID":"45414","PERIOD":"95.592","LAUNCH_DATE":"2020-03-18","BSTAR":"-0.00000620930000","MEAN_MOTION":"15.06400028","OBJECT_ID":"2020-019BG","RA_OF_ASC_NODE":"157.3599","REV_AT_EPOCH":"12369","TIME_SYSTEM":"UTC","CENTER_NAME":"EARTH","EPOCH":"2022-06-10T18:53:55.660992","DECAY_DATE":null,"RCS_SIZE":"LARGE"},{"LAUNCH_DATE":"2020-03-18","PERIOD":"95.592","BSTAR":"0.00013603000000","NORAD_CAT_ID":"45415","OBJECT_TYPE":"PAYLOAD","COUNTRY_CODE":"US","TLE_LINE1":"1 45415U 20019BH  22161.68055411  .00001746  00000-0  13603-3 0  9997","ECCENTRICITY":"0.00016790","OBJECT_NAME":"STARLINK-1316","RCS_SIZE":"LARGE","REV_AT_EPOCH":"12369","TIME_SYSTEM":"UTC","CENTER_NAME":"EARTH","EPOCH":"2022-06-10T16:19:59.875104","DECAY_DATE":null,"RA_OF_ASC_NODE":"157.8503","MEAN_MOTION":"15.06409546","OBJECT_ID":"2020-019BH","SITE":"AFETR","MEAN_ANOMALY":"286.8354","APOAPSIS":"548.347","MEAN_MOTION_DDOT":"0.0000000000000","ARG_OF_PERICENTER":"73.2819","CLASSIFICATION_TYPE":"U","GP_ID":"205860932","MEAN_ELEMENT_THEORY":"SGP4","INCLINATION":"53.0546","EPHEMERIS_TYPE":"0","SEMIMAJOR_AXIS":"6925.319","TLE_LINE2":"2 45415  53.0546 157.8503 0001679  73.2819 286.8354 15.06409546123693","MEAN_MOTION_DOT":"0.00001746","PERIAPSIS":"546.022","REF_FRAME":"TEME","FILE":"3490466","ELEMENT_SET_NO":"999"},{"APOAPSIS":"548.226","MEAN_MOTION_DDOT":"0.0000000000000","SITE":"AFETR","MEAN_ANOMALY":"293.9212","ARG_OF_PERICENTER":"66.1928","GP_ID":"205861184","CLASSIFICATION_TYPE":"U","EPHEMERIS_TYPE":"0","SEMIMAJOR_AXIS":"6925.360","INCLINATION":"53.0525","MEAN_ELEMENT_THEORY":"SGP4","REF_FRAME":"TEME","PERIAPSIS":"546.223","TLE_LINE2":"2 45416  53.0525 157.4131 0001446  66.1928 293.9212 15.06396387123698","MEAN_MOTION_DOT":"0.00001002","FILE":"3490466","ELEMENT_SET_NO":"999","BSTAR":"0.00008613100000","LAUNCH_DATE":"2020-03-18","PERIOD":"95.592","NORAD_CAT_ID":"45416","OBJECT_TYPE":"PAYLOAD","OBJECT_NAME":"STARLINK-1318","TLE_LINE1":"1 45416U 20019BJ  22161.78008252  .00001002  00000-0  86131-4 0  9992","ECCENTRICITY":"0.00014460","COUNTRY_CODE":"US","RCS_SIZE":"LARGE","DECAY_DATE":null,"EPOCH":"2022-06-10T18:43:19.129728","REV_AT_EPOCH":"12369","CENTER_NAME":"EARTH","TIME_SYSTEM":"UTC","RA_OF_ASC_NODE":"157.4131","OBJECT_ID":"2020-019BJ","MEAN_MOTION":"15.06396387"},{"OBJECT_TYPE":"PAYLOAD","COUNTRY_CODE":"US","TLE_LINE1":"1 45417U 20019BK  22161.78469362 -.00000794  00000-0 -34389-4 0  9993","ECCENTRICITY":"0.00014140","OBJECT_NAME":"STARLINK-1286","LAUNCH_DATE":"2020-03-18","PERIOD":"95.593","BSTAR":"-0.00003438900000","NORAD_CAT_ID":"45417","RA_OF_ASC_NODE":"187.3781","MEAN_MOTION":"15.06392289","OBJECT_ID":"2020-019BK","RCS_SIZE":"LARGE","TIME_SYSTEM":"UTC","REV_AT_EPOCH":"12354","CENTER_NAME":"EARTH","EPOCH":"2022-06-10T18:49:57.528768","DECAY_DATE":null,"ARG_OF_PERICENTER":"74.4215","CLASSIFICATION_TYPE":"U","GP_ID":"205861435","MEAN_ANOMALY":"285.6930","SITE":"AFETR","APOAPSIS":"548.216","MEAN_MOTION_DDOT":"0.0000000000000","TLE_LINE2":"2 45417  53.0528 187.3781 0001414  74.4215 285.6930 15.06392289123547","MEAN_MOTION_DOT":"-0.00000794","PERIAPSIS":"546.258","REF_FRAME":"TEME","FILE":"3490466","ELEMENT_SET_NO":"999","INCLINATION":"53.0528","MEAN_ELEMENT_THEORY":"SGP4","EPHEMERIS_TYPE":"0","SEMIMAJOR_AXIS":"6925.372"},{"OBJECT_TYPE":"PAYLOAD","ECCENTRICITY":"0.00016800","TLE_LINE1":"1 45418U 20019BL  22161.86475743  .00008555  00000-0  60057-3 0  9994","OBJECT_NAME":"STARLINK-1299","COUNTRY_CODE":"US","BSTAR":"0.00060057000000","LAUNCH_DATE":"2020-03-18","PERIOD":"95.624","NORAD_CAT_ID":"45418","RA_OF_ASC_NODE":"208.6154","OBJECT_ID":"2020-019BL","MEAN_MOTION":"15.05892497","RCS_SIZE":"LARGE","EPOCH":"2022-06-10T20:45:15.041952","DECAY_DATE":null,"REV_AT_EPOCH":"12295","CENTER_NAME":"EARTH","TIME_SYSTEM":"UTC","ARG_OF_PERICENTER":"14.5452","GP_ID":"205860183","CLASSIFICATION_TYPE":"U","APOAPSIS":"549.933","MEAN_MOTION_DDOT":"0.0000000000000","MEAN_ANOMALY":"345.5584","SITE":"AFETR","PERIAPSIS":"547.606","REF_FRAME":"TEME","TLE_LINE2":"2 45418  52.9986 208.6154 0001680  14.5452 345.5584 15.05892497122958","MEAN_MOTION_DOT":"0.00008555","FILE":"3490466","ELEMENT_SET_NO":"999","EPHEMERIS_TYPE":"0","SEMIMAJOR_AXIS":"6926.904","MEAN_ELEMENT_THEORY":"SGP4","INCLINATION":"52.9986"},{"ELEMENT_SET_NO":"999","FILE":"3490466","MEAN_MOTION_DOT":"-0.00000577","TLE_LINE2":"2 45419  53.0537 187.4079 0001535  71.6667 288.4489 15.06393700123295","PERIAPSIS":"546.170","REF_FRAME":"TEME","INCLINATION":"53.0537","MEAN_ELEMENT_THEORY":"SGP4","SEMIMAJOR_AXIS":"6925.368","EPHEMERIS_TYPE":"0","CLASSIFICATION_TYPE":"U","GP_ID":"205860433","ARG_OF_PERICENTER":"71.6667","MEAN_ANOMALY":"288.4489","SITE":"AFETR","MEAN_MOTION_DDOT":"0.0000000000000","APOAPSIS":"548.296","MEAN_MOTION":"15.06393700","OBJECT_ID":"2020-019BM","RA_OF_ASC_NODE":"187.4079","REV_AT_EPOCH":"12329","TIME_SYSTEM":"UTC","CENTER_NAME":"EARTH","DECAY_DATE":null,"EPOCH":"2022-06-10T18:44:38.793984","RCS_SIZE":"LARGE","COUNTRY_CODE":"US","TLE_LINE1":"1 45419U 20019BM  22161.78100456 -.00000577  00000-0 -19843-4 0  9998","ECCENTRICITY":"0.00015350","OBJECT_NAME":"STARLINK-1308","OBJECT_TYPE":"PAYLOAD","NORAD_CAT_ID":"45419","PERIOD":"95.593","LAUNCH_DATE":"2020-03-18","BSTAR":"-0.00001984300000"},{"ARG_OF_PERICENTER":"61.0871","GP_ID":"205860694","CLASSIFICATION_TYPE":"U","APOAPSIS":"548.526","MEAN_MOTION_DDOT":"0.0000000000000","MEAN_ANOMALY":"299.0304","SITE":"AFETR","PERIAPSIS":"545.954","REF_FRAME":"TEME","TLE_LINE2":"2 45531  53.0544 128.1409 0001857  61.0871 299.0304 15.06391256118892","MEAN_MOTION_DOT":"-0.00000273","FILE":"3490466","ELEMENT_SET_NO":"999","EPHEMERIS_TYPE":"0","SEMIMAJOR_AXIS":"6925.375","INCLINATION":"53.0544","MEAN_ELEMENT_THEORY":"SGP4","OBJECT_TYPE":"PAYLOAD","TLE_LINE1":"1 45531U 20025A   22161.61698023 -.00000273  00000-0  57440-6 0  9993","ECCENTRICITY":"0.00018570","OBJECT_NAME":"STARLINK-1329","COUNTRY_CODE":"US","BSTAR":"0.00000057440000","LAUNCH_DATE":"2020-04-22","PERIOD":"95.593","NORAD_CAT_ID":"45531","RA_OF_ASC_NODE":"128.1409","OBJECT_ID":"2020-025A","MEAN_MOTION":"15.06391256","RCS_SIZE":"LARGE","EPOCH":"2022-06-10T14:48:27.091872","DECAY_DATE":null,"REV_AT_EPOCH":"11889","CENTER_NAME":"EARTH","TIME_SYSTEM":"UTC"},{"INCLINATION":"53.0549","MEAN_ELEMENT_THEORY":"SGP4","SEMIMAJOR_AXIS":"6925.352","EPHEMERIS_TYPE":"0","MEAN_MOTION_DOT":"-0.00000229","TLE_LINE2":"2 45532  53.0549 128.0891 0001891  63.4360 296.6823 15.06399001118894","PERIAPSIS":"545.907","REF_FRAME":"TEME","ELEMENT_SET_NO":"999","FILE":"3490466","SITE":"AFETR","MEAN_ANOMALY":"296.6823","MEAN_MOTION_DDOT":"0.0000000000000","APOAPSIS":"548.526","ARG_OF_PERICENTER":"63.4360","CLASSIFICATION_TYPE":"U","GP_ID":"205860944","RCS_SIZE":"LARGE","CENTER_NAME":"EARTH","REV_AT_EPOCH":"11889","TIME_SYSTEM":"UTC","DECAY_DATE":null,"EPOCH":"2022-06-10T15:04:22.176480","RA_OF_ASC_NODE":"128.0891","MEAN_MOTION":"15.06399001","OBJECT_ID":"2020-025B","PERIOD":"95.592","LAUNCH_DATE":"2020-04-22","BSTAR":"0.00000354900000","NORAD_CAT_ID":"45532","OBJECT_TYPE":"PAYLOAD","COUNTRY_CODE":"US","TLE_LINE1":"1 45532U 20025B   22161.62803445 -.00000229  00000-0  35490-5 0  9992","ECCENTRICITY":"0.00018910","OBJECT_NAME":"STARLINK-1338"},{"RA_OF_ASC_NODE":"84.0650","OBJECT_ID":"2020-025C","MEAN_MOTION":"15.55569145","RCS_SIZE":"LARGE","EPOCH":"2022-06-10T12:05:32.829216","DECAY_DATE":null,"REV_AT_EPOCH":"11950","CENTER_NAME":"EARTH","TIME_SYSTEM":"UTC","OBJECT_TYPE":"PAYLOAD","ECCENTRICITY":"0.00095340","TLE_LINE1":"1 45533U 20025C   22161.50385219  .00114731  00000-0  16266-2 0  9994","OBJECT_NAME":"STARLINK-1339","COUNTRY_CODE":"US","BSTAR":"0.00162660000000","PERIOD":"92.571","LAUNCH_DATE":"2020-04-22","NORAD_CAT_ID":"45533","PERIAPSIS":"394.038","REF_FRAME":"TEME","MEAN_MOTION_DOT":"0.00114731","TLE_LINE2":"2 45533  53.0408  84.0650 0009534  77.3830 282.8246 15.55569145119508","ELEMENT_SET_NO":"999","FILE":"3489795","SEMIMAJOR_AXIS":"6778.636","EPHEMERIS_TYPE":"0","INCLINATION":"53.0408","MEAN_ELEMENT_THEORY":"SGP4","ARG_OF_PERICENTER":"77.3830","GP_ID":"205820462","CLASSIFICATION_TYPE":"U","MEAN_MOTION_DDOT":"0.0000000000000","APOAPSIS":"406.963","SITE":"AFETR","MEAN_ANOMALY":"282.8246"}];
